From:	Horizons Ephemeris System <horizons@ssd.jpl.nasa.gov>
Sent:	Wednesday, March 4, 2020 10:00 AM
Subject:	[Horizons] MAJOR BODY #C(usr={0.,30.,.600^G}@301)_T(301) (1/1)

 Automated mail xmit by MAIL_REQUEST, PID= 8059 Wed Mar  4 07:59:55 2020
++++++++++++++++++++++++++++++++ (part 1 of 1)  +++++++++++++++++++++++++++++++
*******************************************************************************
 Revised: July 31, 2013             Moon / (Earth)                          301
 
 GEOPHYSICAL DATA (updated 2018-Aug-15):
  Vol. mean radius, km  = 1737.53+-0.03    Mass, x10^22 kg       =    7.349
  Radius (gravity), km  = 1738.0           Surface emissivity    =    0.92
  Radius (IAU), km      = 1737.4           GM, km^3/s^2          = 4902.800066
  Density, g/cm^3       =    3.3437        GM 1-sigma, km^3/s^2  =  +-0.0001  
  V(1,0)                =   +0.21          Surface accel., m/s^2 =    1.62
  Earth/Moon mass ratio = 81.3005690769    Farside crust. thick. = ~80 - 90 km
  Mean crustal density  = 2.97+-.07 g/cm^3 Nearside crust. thick.= 58+-8 km 
  Heat flow, Apollo 15  = 3.1+-.6 mW/m^2   Mean angular diameter = 31'05.2"
  Heat flow, Apollo 17  = 2.2+-.5 mW/m^2   Sid. rot. rate, rad/s = 0.0000026617
  Geometric Albedo      = 0.12             Mean solar day        = 29.5306 d
  Obliquity to orbit    = 6.67 deg         Orbit period          = 27.321582 d
  Semi-major axis, a    = 384400 km        Eccentricity          = 0.05490
  Mean motion, rad/s    = 2.6616995x10^-6  Inclination           = 5.145 deg
  Apsidal period        = 3231.50 d        Nodal period          = 6798.38 d
                                 Perihelion  Aphelion    Mean
  Solar Constant (W/m^2)         1414+-7     1323+-7     1368+-7
  Maximum Planetary IR (W/m^2)   1314        1226        1268
  Minimum Planetary IR (W/m^2)      5.2         5.2         5.2
 *******************************************************************************
 
 
*******************************************************************************
Ephemeris / MAIL_REQUEST Wed Mar  4 07:59:54 2020 Pasadena, USA  / Horizons    
*******************************************************************************
Target body name: Moon (301)                      {source: DE431mx}
Center body name: Moon (301)                      {source: DE431mx}
Center-site name: (user defined site below)
*******************************************************************************
Start time      : A.D. 2020-Jan-01 00:00:00.0000 TDB
Stop  time      : A.D. 2039-Jan-01 00:00:00.0000 TDB
Step-size       : 10000 steps
*******************************************************************************
Center geodetic : 0.00000000,30.0000000,0.6000000 {E-lon(deg),Lat(deg),Alt(km)}
Center cylindric: 0.00000000,1505.15215,869.00000 {E-lon(deg),Dxy(km),Dz(km)}
Center pole/equ : IAU_MOON                        {East-longitude positive}
Center radii    : 1737.4 x 1737.4 x 1737.4 km     {Equator, meridian, pole}    
Output units    : KM-S                                                         
Output type     : GEOMETRIC cartesian states
Output format   : 3 (position, velocity, LT, range, range-rate)
Reference frame : ICRF/J2000.0                                                 
Coordinate systm: Ecliptic and Mean Equinox of Reference Epoch                 
*******************************************************************************
JDTDB
   X     Y     Z
   VX    VY    VZ
   LT    RG    RR
*******************************************************************************
$$SOE
2460222.232000001 = A.D. 2023-Oct-04 17:34:04.8000 TDB 
   4.596076094742983E+02  1.414361854077089E+03 -8.994361517333725E+02
  -3.822029441432867E-03  1.195177449919566E-03 -7.362437096881583E-05
   5.797343974543881E-03  1.738000000000000E+03 -1.596983637262884E-20
2460222.926000000 = A.D. 2023-Oct-05 10:13:26.4000 TDB 
   2.256898004145133E+02  1.467477864006476E+03 -9.034471941623633E+02
  -3.963658122327944E-03  5.727260504190981E-04 -5.987556302040266E-05
   5.797343974543882E-03  1.738000000000000E+03 -1.517134455399740E-19
2460223.620000001 = A.D. 2023-Oct-06 02:52:48.0000 TDB 
  -1.371183365662046E+01  1.482753538343092E+03 -9.065858647413461E+02
  -4.004551723885034E-03 -6.429509681422540E-05 -4.458930672131456E-05
   5.797343974543882E-03  1.738000000000000E+03  3.992459093157209E-21
2460224.314000001 = A.D. 2023-Oct-06 19:32:09.6000 TDB 
  -2.525128696511885E+02  1.459799783949807E+03 -9.087716112646889E+02
  -3.943667242693578E-03 -6.996968615481246E-04 -2.815954481759391E-05
   5.797343974543882E-03  1.738000000000000E+03 -7.785295231656557E-20
2460225.008000000 = A.D. 2023-Oct-07 12:11:31.2000 TDB 
  -4.846439143525528E+02  1.399199093834866E+03 -9.099484447443848E+02
  -3.782547991370380E-03 -1.317330190951730E-03 -1.100979374678578E-05
   5.797343974543881E-03  1.738000000000000E+03  2.036154137510177E-19
2460225.702000001 = A.D. 2023-Oct-08 04:50:52.8000 TDB 
  -7.042048469006529E+02  1.302490815419058E+03 -9.100863746648583E+02
  -3.525284767589446E-03 -1.901496302394685E-03  6.418237632998354E-06
   5.797343974543882E-03  1.738000000000000E+03  1.861484052184549E-19
2460226.396000001 = A.D. 2023-Oct-08 21:30:14.4000 TDB 
  -9.056147851931755E+02  1.172132110590210E+03 -9.091821468566447E+02
  -3.178412352235202E-03 -2.437345569830200E-03  2.367645767844520E-05
   5.797343974543882E-03  1.738000000000000E+03  9.182655914261582E-20
2460227.090000000 = A.D. 2023-Oct-09 14:09:36.0000 TDB 
  -1.083753967606635E+03  1.011435590239060E+03 -9.072592708231975E+02
  -2.750743911726196E-03 -2.911255005557295E-03  4.032221493598586E-05
   5.797343974543881E-03  1.738000000000000E+03  1.557059046331312E-19
2460227.784000000 = A.D. 2023-Oct-10 06:48:57.6000 TDB 
  -1.234093943214321E+03  8.244851971117082E+02 -9.043673474122088E+02
  -2.253147445320733E-03 -3.311174758225123E-03  5.592975285686596E-05
   5.797343974543882E-03  1.738000000000000E+03  2.714872183346902E-19
2460228.478000001 = A.D. 2023-Oct-10 23:28:19.2000 TDB 
  -1.352812756631262E+03  6.160324636882226E+02 -9.005807288510808E+02
  -1.698269890301408E-03 -3.626934804164172E-03  7.010097677444347E-05
   5.797343974543881E-03  1.738000000000000E+03  5.110347639241228E-19
2460229.172000001 = A.D. 2023-Oct-11 16:07:40.8000 TDB 
  -1.436892191161859E+03  3.913757725166786E+02 -8.959965600743370E+02
  -1.100215840199519E-03 -3.850503989900174E-03  8.247528957411126E-05
   5.797343974543882E-03  1.738000000000000E+03  3.992459093157209E-20
2460229.866000000 = A.D. 2023-Oct-12 08:47:02.4000 TDB 
  -1.484194587174592E+03  1.562256820181524E+02 -8.907322626241887E+02
  -4.741890078208195E-04 -3.976194770534480E-03  9.273832587833688E-05
   5.797343974543882E-03  1.738000000000000E+03  4.790950911788649E-20
2460230.560000001 = A.D. 2023-Oct-13 01:26:24.0000 TDB 
  -1.493517270566114E+03 -8.344026026846035E+01 -8.849225307828226E+02
   1.638944579136010E-04 -4.000808356323043E-03  1.006294720657826E-04
   5.797343974543881E-03  1.738000000000000E+03 -6.387934549051535E-20
2460231.254000001 = A.D. 2023-Oct-13 18:05:45.6000 TDB 
  -1.464623196010776E+03 -3.215295228796539E+02 -8.787159151989690E+02
   7.978109455042677E-04 -3.923716496255650E-03  1.059480937228581E-04
   5.797343974543882E-03  1.738000000000000E+03 -2.555173819620614E-19
2460231.948000000 = A.D. 2023-Oct-14 10:45:07.2000 TDB 
  -1.398247016723412E+03 -5.519895420074945E+02 -8.722710735421833E+02
   1.411442296447628E-03 -3.746877753320521E-03  1.085584030017096E-04
   5.797343974543881E-03  1.738000000000000E+03  1.517134455399740E-19
2460232.642000000 = A.D. 2023-Oct-15 03:24:28.8000 TDB 
  -1.296076420966724E+03 -7.689616693792939E+02 -8.657527718924703E+02
   1.989186094498566E-03 -3.474787817247791E-03  1.083928919916558E-04
   5.797343974543881E-03  1.738000000000000E+03 -2.395475455894326E-20
2460233.336000001 = A.D. 2023-Oct-15 20:03:50.4000 TDB 
  -1.160709208837614E+03 -9.669301902801431E+02 -8.593277254018783E+02
   2.516352820099397E-03 -3.114365108820251E-03  1.054542447785627E-04
   5.797343974543882E-03  1.738000000000000E+03 -2.315626274031182E-19
2460234.030000001 = A.D. 2023-Oct-16 12:43:12.0000 TDB 
  -9.955872041729540E+02 -1.140862611355727E+03 -8.531603723202750E+02
   2.979539701081856E-03 -2.674774606470275E-03  9.981563181569336E-05
   5.797343974543881E-03  1.738000000000000E+03  5.110347639241228E-19
2460234.724000000 = A.D. 2023-Oct-17 05:22:33.6000 TDB 
  -8.049086892096100E+02 -1.286337641943960E+03 -8.474086811880793E+02
   3.366971699565540E-03 -2.167194423041891E-03  9.161929561283708E-05
   5.797343974543882E-03  1.738000000000000E+03  1.676832819126027E-19
2460235.418000001 = A.D. 2023-Oct-17 22:01:55.2000 TDB 
  -5.935215982962370E+02 -1.399657609070292E+03 -8.422200957751566E+02
   3.668800934621602E-03 -1.604531133740378E-03  8.107336327532711E-05
   5.797343974543881E-03  1.738000000000000E+03  3.992459093157208E-19
2460236.112000001 = A.D. 2023-Oct-18 14:41:16.8000 TDB 
  -3.668001971830584E+02 -1.477942446239409E+03 -8.377277248308899E+02
   3.877356924700825E-03 -1.001091165638640E-03  6.844687124906698E-05
   5.797343974543881E-03  1.738000000000000E+03  1.557059046331312E-19
2460236.806000000 = A.D. 2023-Oct-19 07:20:38.4000 TDB 
  -1.305083936613579E+02 -1.519202868896630E+03 -8.340468825672701E+02
   3.987341310882167E-03 -3.722166709961476E-04  5.406305797451247E-05
   5.797343974543883E-03  1.738000000000000E+03  1.038039364220874E-19
2460237.500000000 = A.D. 2023-Oct-20 00:00:00.0000 TDB 
   1.093468368467139E+02 -1.522390882229182E+03 -8.312720799937097E+02
   3.995962154949116E-03  2.661048055098486E-04  3.829106371230669E-05
   5.797343974543882E-03  1.738000000000000E+03  5.589442730420092E-20
